IDEFIX & ARIANE 42P R/B 
1 27422U 02021B   25347.84186912  .00000463  00000+0  19271-3 0  9997
2 27422  98.5787 282.5184 0012951  80.7139 279.5508 14.30951527231749
AQUA                    
1 27424U 02022A   25347.98596122  .00001564  00000+0  32311-3 0  9996
2 27424  98.4036 308.8853 0001160 114.9016 285.1621 14.61813843256216
CZ-4B R/B               
1 27432U 02024C   25347.99008572  .00000072  00000+0  60360-4 0  9994
2 27432  98.8999  36.7574 0049150 266.2743 157.6901 14.14527977217122
MIDORI II (ADEOS-II)    
1 27597U 02056A   25347.90555752  .00000393  00000+0  17244-3 0  9997
2 27597  98.7637 300.8679 0000239 157.1953 202.9239 14.29206726198048
H-2A R/B                
1 27601U 02056E   25347.93450999  .00000513  00000+0  19416-3 0  9990
2 27601  98.3067 306.6436 0071346  57.6343 351.1564 14.33677364201820
CZ-4B R/B               
1 28059U 03049C   25347.97108694  .00000541  00000+0  13567-3 0  9999
2 28059  98.6789 334.5815 0049046 132.3861 228.1502 14.54910689174132
CZ-2C R/B               
1 28222U 04012C   25347.96170052  .00040862  00000+0  59130-3 0  9994
2 28222  97.7425  40.6838 0016475 265.6500  94.2871 15.55641522190915
SL-16 R/B               
1 28353U 04021B   25347.89436129 -.00000231  00000+0 -95415-4 0  9996
2 28353  71.0015  52.5425 0005220 198.5208 161.5726 14.14580219110704
CZ-4B R/B               
1 28415U 04035C   25348.00268079  .00009269  00000+0  34330-3 0  9997
2 28415  97.3614  18.3300 0031515 272.7746  86.9886 15.27399593166828
CZ-2C R/B               
1 28480U 04046B   25348.01075378  .00000298  00000+0  12546-3 0  9998
2 28480  98.1990 263.3095 0140443  48.5724 312.7425 14.26941717 96285
ARIANE 5 R/B            
1 28499U 04049H   25348.00016910  .00001524  00000+0  17518-3 0  9994
2 28499  98.2522 148.3266 0083303 268.8196  90.3473 14.85015651133075
CZ-2D R/B               
1 28738U 05024B   25348.01043136  .00032466  00000+0  51531-3 0  9997
2 28738  97.3639 355.4904 0005307   1.7755 358.3516 15.53285533126456
