CCSDS_OMM_VERS = 2.0
CREATION_DATE  = 
ORIGINATOR     = 

OBJECT_NAME    = IDEFIX & ARIANE 42P R/B
OBJECT_ID      = 2002-021B
CENTER_NAME    = EARTH
REF_FRAME      = TEME
TIME_SYSTEM    = UTC
MEAN_ELEMENT_THEORY = SGP/SGP4

EPOCH          = 2025-12-13T20:12:17.491968
MEAN_MOTION    = 14.30951527
ECCENTRICITY   = .00129518
INCLINATION    = 98.5787
RA_OF_ASC_NODE = 282.5184
ARG_OF_PERICENTER = 80.7139
MEAN_ANOMALY   = 279.5508

EPHEMERIS_TYPE = 0
CLASSIFICATION_TYPE = U
NORAD_CAT_ID   = 27422
ELEMENT_SET_NO = 999
REV_AT_EPOCH   = 23174
BSTAR          = .19271477E-3
MEAN_MOTION_DOT = .463E-5
MEAN_MOTION_DDOT = 0

CCSDS_OMM_VERS = 2.0
CREATION_DATE  = 
ORIGINATOR     = 

OBJECT_NAME    = AQUA
OBJECT_ID      = 2002-022A
CENTER_NAME    = EARTH
REF_FRAME      = TEME
TIME_SYSTEM    = UTC
MEAN_ELEMENT_THEORY = SGP/SGP4

EPOCH          = 2025-12-13T23:39:47.049408
MEAN_MOTION    = 14.61813843
ECCENTRICITY   = .00011603
INCLINATION    = 98.4036
RA_OF_ASC_NODE = 308.8853
ARG_OF_PERICENTER = 114.9016
MEAN_ANOMALY   = 285.1621

EPHEMERIS_TYPE = 0
CLASSIFICATION_TYPE = U
NORAD_CAT_ID   = 27424
ELEMENT_SET_NO = 999
REV_AT_EPOCH   = 25621
BSTAR          = .32311374E-3
MEAN_MOTION_DOT = .1564E-4
MEAN_MOTION_DDOT = 0

CCSDS_OMM_VERS = 2.0
CREATION_DATE  = 
ORIGINATOR     = 

OBJECT_NAME    = CZ-4B R/B
OBJECT_ID      = 2002-024C
CENTER_NAME    = EARTH
REF_FRAME      = TEME
TIME_SYSTEM    = UTC
MEAN_ELEMENT_THEORY = SGP/SGP4

EPOCH          = 2025-12-13T23:45:43.406208
MEAN_MOTION    = 14.14527977
ECCENTRICITY   = .00491509
INCLINATION    = 98.8999
RA_OF_ASC_NODE = 36.7574
ARG_OF_PERICENTER = 266.2743
MEAN_ANOMALY   = 157.6901

EPHEMERIS_TYPE = 0
CLASSIFICATION_TYPE = U
NORAD_CAT_ID   = 27432
ELEMENT_SET_NO = 999
REV_AT_EPOCH   = 21712
BSTAR          = .60359827E-4
MEAN_MOTION_DOT = .72E-6
MEAN_MOTION_DDOT = 0

CCSDS_OMM_VERS = 2.0
CREATION_DATE  = 
ORIGINATOR     = 

OBJECT_NAME    = MIDORI II (ADEOS-II)
OBJECT_ID      = 2002-056A
CENTER_NAME    = EARTH
REF_FRAME      = TEME
TIME_SYSTEM    = UTC
MEAN_ELEMENT_THEORY = SGP/SGP4

EPOCH          = 2025-12-13T21:44:00.169728
MEAN_MOTION    = 14.29206726
ECCENTRICITY   = .00002391
INCLINATION    = 98.7637
RA_OF_ASC_NODE = 300.8679
ARG_OF_PERICENTER = 157.1953
MEAN_ANOMALY   = 202.9239

EPHEMERIS_TYPE = 0
CLASSIFICATION_TYPE = U
NORAD_CAT_ID   = 27597
ELEMENT_SET_NO = 999
REV_AT_EPOCH   = 19804
BSTAR          = .17243585E-3
MEAN_MOTION_DOT = .393E-5
MEAN_MOTION_DDOT = 0

CCSDS_OMM_VERS = 2.0
CREATION_DATE  = 
ORIGINATOR     = 

OBJECT_NAME    = H-2A R/B
OBJECT_ID      = 2002-056E
CENTER_NAME    = EARTH
REF_FRAME      = TEME
TIME_SYSTEM    = UTC
MEAN_ELEMENT_THEORY = SGP/SGP4

EPOCH          = 2025-12-13T22:25:41.663136
MEAN_MOTION    = 14.33677364
ECCENTRICITY   = .00713468
INCLINATION    = 98.3067
RA_OF_ASC_NODE = 306.6436
ARG_OF_PERICENTER = 57.6343
MEAN_ANOMALY   = 351.1564

EPHEMERIS_TYPE = 0
CLASSIFICATION_TYPE = U
NORAD_CAT_ID   = 27601
ELEMENT_SET_NO = 999
REV_AT_EPOCH   = 20182
BSTAR          = .19415937E-3
MEAN_MOTION_DOT = .513E-5
MEAN_MOTION_DDOT = 0

CCSDS_OMM_VERS = 2.0
CREATION_DATE  = 
ORIGINATOR     = 

OBJECT_NAME    = CZ-4B R/B
OBJECT_ID      = 2003-049C
CENTER_NAME    = EARTH
REF_FRAME      = TEME
TIME_SYSTEM    = UTC
MEAN_ELEMENT_THEORY = SGP/SGP4

EPOCH          = 2025-12-13T23:18:21.911616
MEAN_MOTION    = 14.54910689
ECCENTRICITY   = .00490462
INCLINATION    = 98.6789
RA_OF_ASC_NODE = 334.5815
ARG_OF_PERICENTER = 132.3861
MEAN_ANOMALY   = 228.1502

EPHEMERIS_TYPE = 0
CLASSIFICATION_TYPE = U
NORAD_CAT_ID   = 28059
ELEMENT_SET_NO = 999
REV_AT_EPOCH   = 17413
BSTAR          = .13567325E-3
MEAN_MOTION_DOT = .541E-5
MEAN_MOTION_DDOT = 0

CCSDS_OMM_VERS = 2.0
CREATION_DATE  = 
ORIGINATOR     = 

OBJECT_NAME    = CZ-2C R/B
OBJECT_ID      = 2004-012C
CENTER_NAME    = EARTH
REF_FRAME      = TEME
TIME_SYSTEM    = UTC
MEAN_ELEMENT_THEORY = SGP/SGP4

EPOCH          = 2025-12-13T23:04:50.924928
MEAN_MOTION    = 15.55641522
ECCENTRICITY   = .00164755
INCLINATION    = 97.7425
RA_OF_ASC_NODE = 40.6838
ARG_OF_PERICENTER = 265.6500
MEAN_ANOMALY   = 94.2871

EPHEMERIS_TYPE = 0
CLASSIFICATION_TYPE = U
NORAD_CAT_ID   = 28222
ELEMENT_SET_NO = 999
REV_AT_EPOCH   = 19091
BSTAR          = .59130102E-3
MEAN_MOTION_DOT = .40862E-3
MEAN_MOTION_DDOT = 0

CCSDS_OMM_VERS = 2.0
CREATION_DATE  = 
ORIGINATOR     = 

OBJECT_NAME    = SL-16 R/B
OBJECT_ID      = 2004-021B
CENTER_NAME    = EARTH
REF_FRAME      = TEME
TIME_SYSTEM    = UTC
MEAN_ELEMENT_THEORY = SGP/SGP4

EPOCH          = 2025-12-13T21:27:52.815456
MEAN_MOTION    = 14.14580219
ECCENTRICITY   = .00052204
INCLINATION    = 71.0015
RA_OF_ASC_NODE = 52.5425
ARG_OF_PERICENTER = 198.5208
MEAN_ANOMALY   = 161.5726

EPHEMERIS_TYPE = 0
CLASSIFICATION_TYPE = U
NORAD_CAT_ID   = 28353
ELEMENT_SET_NO = 999
REV_AT_EPOCH   = 11070
BSTAR          = -.95415427E-4
MEAN_MOTION_DOT = -.231E-5
MEAN_MOTION_DDOT = 0

CCSDS_OMM_VERS = 2.0
CREATION_DATE  = 
ORIGINATOR     = 

OBJECT_NAME    = CZ-4B R/B
OBJECT_ID      = 2004-035C
CENTER_NAME    = EARTH
REF_FRAME      = TEME
TIME_SYSTEM    = UTC
MEAN_ELEMENT_THEORY = SGP/SGP4

EPOCH          = 2025-12-14T00:03:51.620256
MEAN_MOTION    = 15.27399593
ECCENTRICITY   = .00315158
INCLINATION    = 97.3614
RA_OF_ASC_NODE = 18.3300
ARG_OF_PERICENTER = 272.7746
MEAN_ANOMALY   = 86.9886

EPHEMERIS_TYPE = 0
CLASSIFICATION_TYPE = U
NORAD_CAT_ID   = 28415
ELEMENT_SET_NO = 999
REV_AT_EPOCH   = 16682
BSTAR          = .34329701E-3
MEAN_MOTION_DOT = .9269E-4
MEAN_MOTION_DDOT = 0

CCSDS_OMM_VERS = 2.0
CREATION_DATE  = 
ORIGINATOR     = 

OBJECT_NAME    = CZ-2C R/B
OBJECT_ID      = 2004-046B
CENTER_NAME    = EARTH
REF_FRAME      = TEME
TIME_SYSTEM    = UTC
MEAN_ELEMENT_THEORY = SGP/SGP4

EPOCH          = 2025-12-14T00:15:29.126592
MEAN_MOTION    = 14.26941717
ECCENTRICITY   = .01404435
INCLINATION    = 98.1990
RA_OF_ASC_NODE = 263.3095
ARG_OF_PERICENTER = 48.5724
MEAN_ANOMALY   = 312.7425

EPHEMERIS_TYPE = 0
CLASSIFICATION_TYPE = U
NORAD_CAT_ID   = 28480
ELEMENT_SET_NO = 999
REV_AT_EPOCH   = 9628
BSTAR          = .12545559E-3
MEAN_MOTION_DOT = .298E-5
MEAN_MOTION_DDOT = 0

CCSDS_OMM_VERS = 2.0
CREATION_DATE  = 
ORIGINATOR     = 

OBJECT_NAME    = ARIANE 5 R/B
OBJECT_ID      = 2004-049H
CENTER_NAME    = EARTH
REF_FRAME      = TEME
TIME_SYSTEM    = UTC
MEAN_ELEMENT_THEORY = SGP/SGP4

EPOCH          = 2025-12-14T00:00:14.610240
MEAN_MOTION    = 14.85015651
ECCENTRICITY   = .00833038
INCLINATION    = 98.2522
RA_OF_ASC_NODE = 148.3266
ARG_OF_PERICENTER = 268.8196
MEAN_ANOMALY   = 90.3473

EPHEMERIS_TYPE = 0
CLASSIFICATION_TYPE = U
NORAD_CAT_ID   = 28499
ELEMENT_SET_NO = 999
REV_AT_EPOCH   = 13307
BSTAR          = .17517807E-3
MEAN_MOTION_DOT = .1524E-4
MEAN_MOTION_DDOT = 0

CCSDS_OMM_VERS = 2.0
CREATION_DATE  = 
ORIGINATOR     = 

OBJECT_NAME    = CZ-2D R/B
OBJECT_ID      = 2005-024B
CENTER_NAME    = EARTH
REF_FRAME      = TEME
TIME_SYSTEM    = UTC
MEAN_ELEMENT_THEORY = SGP/SGP4

EPOCH          = 2025-12-14T00:15:01.269504
MEAN_MOTION    = 15.53285533
ECCENTRICITY   = .00053077
INCLINATION    = 97.3639
RA_OF_ASC_NODE = 355.4904
ARG_OF_PERICENTER = 1.7755
MEAN_ANOMALY   = 358.3516

EPHEMERIS_TYPE = 0
CLASSIFICATION_TYPE = U
NORAD_CAT_ID   = 28738
ELEMENT_SET_NO = 999
REV_AT_EPOCH   = 12645
BSTAR          = .51531376E-3
MEAN_MOTION_DOT = .32466E-3
MEAN_MOTION_DDOT = 0

